start=new Date('2022-08-15T00:00:00.000Z').valueOf();
sats=[{"COUNTRY_CODE":"US","ECCENTRICITY":"0.00016000","GP_ID":"210231185","APOAPSIS":"548.305","REV_AT_EPOCH":"7271","MEAN_ANOMALY":"292.3061","EPOCH":"2022-08-14T20:35:39.810624","TLE_LINE1":"1 48278U 21036C   22226.85809966  .00000782  00000-0  71368-4 0  9992","REF_FRAME":"TEME","PERIOD":"95.592","OBJECT_ID":"2021-036C","NORAD_CAT_ID":"48278","INCLINATION":"53.0543","CENTER_NAME":"EARTH","ELEMENT_SET_NO":"999","SEMIMAJOR_AXIS":"6925.332","BSTAR":"0.00007136800000","MEAN_MOTION_DDOT":"0.0000000000000","MEAN_ELEMENT_THEORY":"SGP4","TLE_LINE2":"2 48278  53.0543 115.3257 0001600  67.8098 292.3061 15.06405388 72710","MEAN_MOTION_DOT":"0.00000782","OBJECT_NAME":"STARLINK-2543","PERIAPSIS":"546.089","CLASSIFICATION_TYPE":"U","FILE":"3536615","ARG_OF_PERICENTER":"67.8098","RA_OF_ASC_NODE":"115.3257","RCS_SIZE":"LARGE","LAUNCH_DATE":"2021-04-29","TIME_SYSTEM":"UTC","DECAY_DATE":null,"MEAN_MOTION":"15.06405388","EPHEMERIS_TYPE":"0","SITE":"AFETR","OBJECT_TYPE":"PAYLOAD"},{"MEAN_MOTION_DOT":"-0.00001336","OBJECT_NAME":"STARLINK-2580","TLE_LINE2":"2 48279  53.0530 115.2981 0001571  66.8747 293.2408 15.06402827 72717","MEAN_ELEMENT_THEORY":"SGP4","PERIAPSIS":"546.117","TIME_SYSTEM":"UTC","ARG_OF_PERICENTER":"66.8747","FILE":"3536615","RA_OF_ASC_NODE":"115.2981","CLASSIFICATION_TYPE":"U","RCS_SIZE":"MEDIUM","LAUNCH_DATE":"2021-04-29","EPHEMERIS_TYPE":"0","DECAY_DATE":null,"MEAN_MOTION":"15.06402827","OBJECT_TYPE":"PAYLOAD","SITE":"AFETR","APOAPSIS":"548.293","REV_AT_EPOCH":"7271","EPOCH":"2022-08-14T20:25:02.536320","MEAN_ANOMALY":"293.2408","ECCENTRICITY":"0.00015710","COUNTRY_CODE":"US","GP_ID":"210232435","REF_FRAME":"TEME","OBJECT_ID":"2021-036D","PERIOD":"95.592","TLE_LINE1":"1 48279U 21036D   22226.85072380 -.00001336  00000-0 -70795-4 0  9996","INCLINATION":"53.0530","CENTER_NAME":"EARTH","SEMIMAJOR_AXIS":"6925.340","ELEMENT_SET_NO":"999","NORAD_CAT_ID":"48279","MEAN_MOTION_DDOT":"0.0000000000000","BSTAR":"-0.00007079500000"},{"GP_ID":"210232685","ECCENTRICITY":"0.00014480","COUNTRY_CODE":"US","EPOCH":"2022-08-14T21:51:17.767584","MEAN_ANOMALY":"288.6651","APOAPSIS":"548.232","REV_AT_EPOCH":"7174","TLE_LINE1":"1 48280U 21036E   22226.91062231  .00000409  00000-0  46344-4 0  9990","OBJECT_ID":"2021-036E","PERIOD":"95.592","REF_FRAME":"TEME","NORAD_CAT_ID":"48280","SEMIMAJOR_AXIS":"6925.364","ELEMENT_SET_NO":"999","CENTER_NAME":"EARTH","INCLINATION":"53.0549","BSTAR":"0.00004634400000","MEAN_MOTION_DDOT":"0.0000000000000","PERIAPSIS":"546.227","MEAN_MOTION_DOT":"0.00000409","OBJECT_NAME":"STARLINK-2565","TLE_LINE2":"2 48280  53.0549 185.0242 0001448  71.4495 288.6651 15.06394803 71743","MEAN_ELEMENT_THEORY":"SGP4","LAUNCH_DATE":"2021-04-29","RCS_SIZE":"LARGE","FILE":"3536615","ARG_OF_PERICENTER":"71.4495","RA_OF_ASC_NODE":"185.0242","CLASSIFICATION_TYPE":"U","TIME_SYSTEM":"UTC","EPHEMERIS_TYPE":"0","DECAY_DATE":null,"MEAN_MOTION":"15.06394803","SITE":"AFETR","OBJECT_TYPE":"PAYLOAD"},{"NORAD_CAT_ID":"48281","SEMIMAJOR_AXIS":"6925.392","ELEMENT_SET_NO":"999","INCLINATION":"53.0534","CENTER_NAME":"EARTH","BSTAR":"0.00002054500000","MEAN_MOTION_DDOT":"0.0000000000000","GP_ID":"210231436","ECCENTRICITY":"0.00015280","COUNTRY_CODE":"US","EPOCH":"2022-08-14T20:34:21.165024","MEAN_ANOMALY":"292.7265","REV_AT_EPOCH":"7201","APOAPSIS":"548.315","TLE_LINE1":"1 48281U 21036F   22226.85718941  .00000024  00000-0  20545-4 0  9998","OBJECT_ID":"2021-036F","PERIOD":"95.593","REF_FRAME":"TEME","EPHEMERIS_TYPE":"0","DECAY_DATE":null,"MEAN_MOTION":"15.06385953","SITE":"AFETR","OBJECT_TYPE":"PAYLOAD","PERIAPSIS":"546.198","OBJECT_NAME":"STARLINK-2520","MEAN_MOTION_DOT":"0.00000024","TLE_LINE2":"2 48281  53.0534 165.2625 0001528  67.3885 292.7265 15.06385953 72013","MEAN_ELEMENT_THEORY":"SGP4","LAUNCH_DATE":"2021-04-29","RCS_SIZE":"LARGE","RA_OF_ASC_NODE":"165.2625","FILE":"3536615","ARG_OF_PERICENTER":"67.3885","CLASSIFICATION_TYPE":"U","TIME_SYSTEM":"UTC"},{"REF_FRAME":"TEME","OBJECT_ID":"2021-036G","PERIOD":"95.592","TLE_LINE1":"1 48282U 21036G   22226.88066786  .00001518  00000-0  12077-3 0  9994","REV_AT_EPOCH":"7195","APOAPSIS":"548.178","EPOCH":"2022-08-14T21:08:09.703104","MEAN_ANOMALY":"284.0583","ECCENTRICITY":"0.00014180","COUNTRY_CODE":"US","GP_ID":"210231686","MEAN_MOTION_DDOT":"0.0000000000000","BSTAR":"0.00012077000000","CENTER_NAME":"EARTH","INCLINATION":"53.0548","SEMIMAJOR_AXIS":"6925.331","ELEMENT_SET_NO":"999","NORAD_CAT_ID":"48282","TIME_SYSTEM":"UTC","FILE":"3536615","RA_OF_ASC_NODE":"170.1663","ARG_OF_PERICENTER":"76.0563","CLASSIFICATION_TYPE":"U","RCS_SIZE":"LARGE","LAUNCH_DATE":"2021-04-29","OBJECT_NAME":"STARLINK-2558","MEAN_MOTION_DOT":"0.00001518","TLE_LINE2":"2 48282  53.0548 170.1663 0001418  76.0563 284.0583 15.06405604 71959","MEAN_ELEMENT_THEORY":"SGP4","PERIAPSIS":"546.214","SITE":"AFETR","OBJECT_TYPE":"PAYLOAD","EPHEMERIS_TYPE":"0","DECAY_DATE":null,"MEAN_MOTION":"15.06405604"},{"EPHEMERIS_TYPE":"0","MEAN_MOTION":"15.06393691","DECAY_DATE":null,"SITE":"AFETR","OBJECT_TYPE":"PAYLOAD","MEAN_MOTION_DOT":"-0.00000637","OBJECT_NAME":"STARLINK-2516","TLE_LINE2":"2 48283  53.0533 170.1811 0001598  74.3828 285.7338 15.06393691 71951","MEAN_ELEMENT_THEORY":"SGP4","PERIAPSIS":"546.126","TIME_SYSTEM":"UTC","RA_OF_ASC_NODE":"170.1811","FILE":"3536615","ARG_OF_PERICENTER":"74.3828","CLASSIFICATION_TYPE":"U","RCS_SIZE":"MEDIUM","LAUNCH_DATE":"2021-04-29","CENTER_NAME":"EARTH","INCLINATION":"53.0533","SEMIMAJOR_AXIS":"6925.368","ELEMENT_SET_NO":"999","NORAD_CAT_ID":"48283","MEAN_MOTION_DDOT":"0.0000000000000","BSTAR":"-0.00002387000000","REV_AT_EPOCH":"7195","APOAPSIS":"548.340","EPOCH":"2022-08-14T21:02:51.773568","MEAN_ANOMALY":"285.7338","ECCENTRICITY":"0.00015980","COUNTRY_CODE":"US","GP_ID":"210231935","REF_FRAME":"TEME","OBJECT_ID":"2021-036H","PERIOD":"95.593","TLE_LINE1":"1 48283U 21036H   22226.87698812 -.00000637  00000-0 -23870-4 0  9992"},{"TIME_SYSTEM":"UTC","CLASSIFICATION_TYPE":"U","FILE":"3536350","RA_OF_ASC_NODE":"172.5695","ARG_OF_PERICENTER":"63.6144","RCS_SIZE":"LARGE","LAUNCH_DATE":"2021-04-29","TLE_LINE2":"2 48284  53.0547 172.5695 0001498  63.6144 296.4998 15.06396785 71862","MEAN_ELEMENT_THEORY":"SGP4","MEAN_MOTION_DOT":"0.00000169","OBJECT_NAME":"STARLINK-2564","PERIAPSIS":"546.186","OBJECT_TYPE":"PAYLOAD","SITE":"AFETR","MEAN_MOTION":"15.06396785","DECAY_DATE":null,"EPHEMERIS_TYPE":"0","REF_FRAME":"TEME","PERIOD":"95.592","OBJECT_ID":"2021-036J","TLE_LINE1":"1 48284U 21036J   22226.34253200  .00000169  00000-0  30223-4 0  9991","APOAPSIS":"548.261","REV_AT_EPOCH":"7186","MEAN_ANOMALY":"296.4998","EPOCH":"2022-08-14T08:13:14.764800","COUNTRY_CODE":"US","ECCENTRICITY":"0.00014980","GP_ID":"210200047","MEAN_MOTION_DDOT":"0.0000000000000","BSTAR":"0.00003022300000","INCLINATION":"53.0547","CENTER_NAME":"EARTH","ELEMENT_SET_NO":"999","SEMIMAJOR_AXIS":"6925.358","NORAD_CAT_ID":"48284"},{"TIME_SYSTEM":"UTC","FILE":"3536615","RA_OF_ASC_NODE":"170.2053","ARG_OF_PERICENTER":"70.3455","CLASSIFICATION_TYPE":"U","LAUNCH_DATE":"2021-04-29","RCS_SIZE":"LARGE","OBJECT_NAME":"STARLINK-2548","MEAN_MOTION_DOT":"0.00003015","MEAN_ELEMENT_THEORY":"SGP4","TLE_LINE2":"2 48285  53.0533 170.2053 0001510  70.3455 289.7696 15.06401945 71940","PERIAPSIS":"546.162","SITE":"AFETR","OBJECT_TYPE":"PAYLOAD","EPHEMERIS_TYPE":"0","MEAN_MOTION":"15.06401945","DECAY_DATE":null,"REF_FRAME":"TEME","OBJECT_ID":"2021-036K","PERIOD":"95.592","TLE_LINE1":"1 48285U 21036K   22226.86866468  .00003015  00000-0  22121-3 0  9995","REV_AT_EPOCH":"7194","APOAPSIS":"548.253","EPOCH":"2022-08-14T20:50:52.628352","MEAN_ANOMALY":"289.7696","ECCENTRICITY":"0.00015100","COUNTRY_CODE":"US","GP_ID":"210230936","MEAN_MOTION_DDOT":"0.0000000000000","BSTAR":"0.00022121000000","CENTER_NAME":"EARTH","INCLINATION":"53.0533","SEMIMAJOR_AXIS":"6925.343","ELEMENT_SET_NO":"999","NORAD_CAT_ID":"48285"},{"OBJECT_ID":"2021-036L","PERIOD":"95.592","REF_FRAME":"TEME","TLE_LINE1":"1 48286U 21036L   22226.86592294  .00000543  00000-0  55355-4 0  9998","EPOCH":"2022-08-14T20:46:55.742016","MEAN_ANOMALY":"285.5522","APOAPSIS":"548.284","REV_AT_EPOCH":"7194","GP_ID":"210231186","ECCENTRICITY":"0.00015400","COUNTRY_CODE":"US","MEAN_MOTION_DDOT":"0.0000000000000","BSTAR":"0.00005535500000","SEMIMAJOR_AXIS":"6925.352","ELEMENT_SET_NO":"999","CENTER_NAME":"EARTH","INCLINATION":"53.0543","NORAD_CAT_ID":"48286","TIME_SYSTEM":"UTC","LAUNCH_DATE":"2021-04-29","RCS_SIZE":"LARGE","RA_OF_ASC_NODE":"170.2366","FILE":"3536615","ARG_OF_PERICENTER":"74.5637","CLASSIFICATION_TYPE":"U","PERIAPSIS":"546.151","OBJECT_NAME":"STARLINK-2547","MEAN_MOTION_DOT":"0.00000543","TLE_LINE2":"2 48286  53.0543 170.2366 0001540  74.5637 285.5522 15.06398835 71945","MEAN_ELEMENT_THEORY":"SGP4","SITE":"AFETR","OBJECT_TYPE":"PAYLOAD","EPHEMERIS_TYPE":"0","MEAN_MOTION":"15.06398835","DECAY_DATE":null},{"CENTER_NAME":"EARTH","INCLINATION":"53.0547","ELEMENT_SET_NO":"999","SEMIMAJOR_AXIS":"6925.352","NORAD_CAT_ID":"48287","MEAN_MOTION_DDOT":"0.0000000000000","BSTAR":"0.00002138500000","APOAPSIS":"548.333","REV_AT_EPOCH":"7186","MEAN_ANOMALY":"294.2593","EPOCH":"2022-08-14T07:57:19.630944","COUNTRY_CODE":"US","ECCENTRICITY":"0.00016120","GP_ID":"210200800","REF_FRAME":"TEME","PERIOD":"95.592","OBJECT_ID":"2021-036M","TLE_LINE1":"1 48287U 21036M   22226.33147721  .00000037  00000-0  21385-4 0  9996","MEAN_MOTION":"15.06399039","DECAY_DATE":null,"EPHEMERIS_TYPE":"0","OBJECT_TYPE":"PAYLOAD","SITE":"AFETR","TLE_LINE2":"2 48287  53.0547 172.6289 0001612  65.8564 294.2593 15.06399039 71865","MEAN_ELEMENT_THEORY":"SGP4","MEAN_MOTION_DOT":"0.00000037","OBJECT_NAME":"STARLINK-2566","PERIAPSIS":"546.100","TIME_SYSTEM":"UTC","CLASSIFICATION_TYPE":"U","RA_OF_ASC_NODE":"172.6289","FILE":"3536350","ARG_OF_PERICENTER":"65.8564","RCS_SIZE":"LARGE","LAUNCH_DATE":"2021-04-29"}];
